start=new Date('2022-11-16T00:00:00.000Z').valueOf();
sats=[{"MEAN_MOTION_DDOT":"0.0000000000000","SEMIMAJOR_AXIS":"6917.905","MEAN_MOTION":"15.08831805","RCS_SIZE":"LARGE","OBJECT_NAME":"STARLINK-3603","LAUNCH_DATE":"2022-02-25","OBJECT_ID":"2022-017BA","PERIOD":"95.438","MEAN_ELEMENT_THEORY":"SGP4","INCLINATION":"53.2172","EPHEMERIS_TYPE":"0","CLASSIFICATION_TYPE":"U","ECCENTRICITY":"0.00017910","ARG_OF_PERICENTER":"46.6460","TLE_LINE1":"1 51816U 22017BA  22319.55181057  .00001322  00000-0  10115-3 0  9991","APOAPSIS":"541.009","PERIAPSIS":"538.531","REF_FRAME":"TEME","TIME_SYSTEM":"UTC","COUNTRY_CODE":"US","ELEMENT_SET_NO":"999","CENTER_NAME":"EARTH","GP_ID":"217878160","OBJECT_TYPE":"PAYLOAD","MEAN_MOTION_DOT":"0.00001322","DECAY_DATE":null,"MEAN_ANOMALY":"313.4681","EPOCH":"2022-11-15T13:14:36.433248","NORAD_CAT_ID":"51816","BSTAR":"0.00010115000000","TLE_LINE2":"2 51816  53.2172   1.6515 0001791  46.6460 313.4681 15.08831805 41566","RA_OF_ASC_NODE":"1.6515","FILE":"3657751","SITE":"AFWTR","REV_AT_EPOCH":"4156"},{"OBJECT_TYPE":"PAYLOAD","CENTER_NAME":"EARTH","COUNTRY_CODE":"US","ELEMENT_SET_NO":"999","GP_ID":"217906623","MEAN_MOTION_DOT":"0.00003451","APOAPSIS":"342.056","PERIAPSIS":"337.406","TIME_SYSTEM":"UTC","REF_FRAME":"TEME","TLE_LINE2":"2 51817  53.1997 271.7959 0003461  13.0004 347.1106 15.76724267 42779","RA_OF_ASC_NODE":"271.7959","FILE":"3657961","REV_AT_EPOCH":"4277","SITE":"AFWTR","MEAN_ANOMALY":"347.1106","EPOCH":"2022-11-15T18:58:10.138368","NORAD_CAT_ID":"51817","DECAY_DATE":null,"BSTAR":"0.00002509800000","OBJECT_NAME":"STARLINK-3596","RCS_SIZE":"LARGE","LAUNCH_DATE":"2022-02-25","PERIOD":"91.329","OBJECT_ID":"2022-017BB","MEAN_MOTION_DDOT":"0.0000000000000","SEMIMAJOR_AXIS":"6717.866","MEAN_MOTION":"15.76724267","TLE_LINE1":"1 51817U 22017BB  22319.79039512  .00003451  00000-0  25098-4 0  9998","ECCENTRICITY":"0.00034610","ARG_OF_PERICENTER":"13.0004","MEAN_ELEMENT_THEORY":"SGP4","CLASSIFICATION_TYPE":"U","EPHEMERIS_TYPE":"0","INCLINATION":"53.1997"},{"MEAN_ANOMALY":"315.5786","EPOCH":"2022-11-15T13:55:40.476576","NORAD_CAT_ID":"51852","DECAY_DATE":null,"BSTAR":"0.00021153000000","FILE":"3657961","TLE_LINE2":"2 51852  53.2173  51.5113 0002021  44.5368 315.5786 15.08838392 39076","RA_OF_ASC_NODE":"51.5113","REV_AT_EPOCH":"3907","SITE":"AFETR","APOAPSIS":"541.148","PERIAPSIS":"538.352","TIME_SYSTEM":"UTC","REF_FRAME":"TEME","OBJECT_TYPE":"PAYLOAD","CENTER_NAME":"EARTH","COUNTRY_CODE":"US","ELEMENT_SET_NO":"999","GP_ID":"217905625","MEAN_MOTION_DOT":"0.00003080","MEAN_ELEMENT_THEORY":"SGP4","CLASSIFICATION_TYPE":"U","EPHEMERIS_TYPE":"0","INCLINATION":"53.2173","TLE_LINE1":"1 51852U 22022A   22319.58032959  .00003080  00000-0  21153-3 0  9993","ECCENTRICITY":"0.00020210","ARG_OF_PERICENTER":"44.5368","MEAN_MOTION_DDOT":"0.0000000000000","SEMIMAJOR_AXIS":"6917.885","MEAN_MOTION":"15.08838392","RCS_SIZE":"LARGE","OBJECT_NAME":"STARLINK-3542","LAUNCH_DATE":"2022-03-03","PERIOD":"95.438","OBJECT_ID":"2022-022A"},{"TIME_SYSTEM":"UTC","REF_FRAME":"TEME","PERIAPSIS":"538.515","APOAPSIS":"541.001","MEAN_MOTION_DOT":"0.00003946","OBJECT_TYPE":"PAYLOAD","GP_ID":"217906876","ELEMENT_SET_NO":"999","COUNTRY_CODE":"US","CENTER_NAME":"EARTH","BSTAR":"0.00026593000000","NORAD_CAT_ID":"51853","EPOCH":"2022-11-15T18:47:08.398176","MEAN_ANOMALY":"308.1988","DECAY_DATE":null,"REV_AT_EPOCH":"4030","SITE":"AFETR","TLE_LINE2":"2 51853  53.2177  50.6079 0001797  51.9166 308.1988 15.08835908 40309","RA_OF_ASC_NODE":"50.6079","FILE":"3657961","MEAN_MOTION":"15.08835908","SEMIMAJOR_AXIS":"6917.893","MEAN_MOTION_DDOT":"0.0000000000000","PERIOD":"95.438","OBJECT_ID":"2022-022B","LAUNCH_DATE":"2022-03-03","RCS_SIZE":"MEDIUM","OBJECT_NAME":"STARLINK-3539","EPHEMERIS_TYPE":"0","CLASSIFICATION_TYPE":"U","INCLINATION":"53.2177","MEAN_ELEMENT_THEORY":"SGP4","TLE_LINE1":"1 51853U 22022B   22319.78273609  .00003946  00000-0  26593-3 0  9999","ARG_OF_PERICENTER":"51.9166","ECCENTRICITY":"0.00017970"},{"PERIOD":"95.438","OBJECT_ID":"2022-022C","RCS_SIZE":"LARGE","OBJECT_NAME":"STARLINK-3541","LAUNCH_DATE":"2022-03-03","SEMIMAJOR_AXIS":"6917.911","MEAN_MOTION":"15.08829884","MEAN_MOTION_DDOT":"0.0000000000000","TLE_LINE1":"1 51854U 22022C   22319.57665081  .00000988  00000-0  80175-4 0  9996","ECCENTRICITY":"0.00020750","ARG_OF_PERICENTER":"36.1489","EPHEMERIS_TYPE":"0","CLASSIFICATION_TYPE":"U","INCLINATION":"53.2171","MEAN_ELEMENT_THEORY":"SGP4","MEAN_MOTION_DOT":"0.00000988","OBJECT_TYPE":"PAYLOAD","CENTER_NAME":"EARTH","COUNTRY_CODE":"US","ELEMENT_SET_NO":"999","GP_ID":"217876551","REF_FRAME":"TEME","TIME_SYSTEM":"UTC","APOAPSIS":"541.212","PERIAPSIS":"538.341","REV_AT_EPOCH":"4033","SITE":"AFETR","RA_OF_ASC_NODE":"51.5256","TLE_LINE2":"2 51854  53.2171  51.5256 0002075  36.1489 323.9643 15.08829884 40336","FILE":"3657646","BSTAR":"0.00008017500000","EPOCH":"2022-11-15T13:50:22.629984","MEAN_ANOMALY":"323.9643","NORAD_CAT_ID":"51854","DECAY_DATE":null},{"INCLINATION":"53.2187","EPHEMERIS_TYPE":"0","CLASSIFICATION_TYPE":"U","MEAN_ELEMENT_THEORY":"SGP4","ECCENTRICITY":"0.00021410","ARG_OF_PERICENTER":"36.5083","TLE_LINE1":"1 51855U 22022D   22319.76801353  .00003182  00000-0  21795-3 0  9993","SEMIMAJOR_AXIS":"6917.893","MEAN_MOTION":"15.08835986","MEAN_MOTION_DDOT":"0.0000000000000","OBJECT_ID":"2022-022D","PERIOD":"95.438","RCS_SIZE":"LARGE","OBJECT_NAME":"STARLINK-3545","LAUNCH_DATE":"2022-03-03","BSTAR":"0.00021795000000","DECAY_DATE":null,"MEAN_ANOMALY":"323.6055","EPOCH":"2022-11-15T18:25:56.368992","NORAD_CAT_ID":"51855","SITE":"AFETR","REV_AT_EPOCH":"4031","TLE_LINE2":"2 51855  53.2187  50.6752 0002141  36.5083 323.6055 15.08835986 40315","RA_OF_ASC_NODE":"50.6752","FILE":"3657961","REF_FRAME":"TEME","TIME_SYSTEM":"UTC","APOAPSIS":"541.239","PERIAPSIS":"538.277","MEAN_MOTION_DOT":"0.00003182","ELEMENT_SET_NO":"999","COUNTRY_CODE":"US","CENTER_NAME":"EARTH","GP_ID":"217905875","OBJECT_TYPE":"PAYLOAD"},{"MEAN_ELEMENT_THEORY":"SGP4","INCLINATION":"53.2175","EPHEMERIS_TYPE":"0","CLASSIFICATION_TYPE":"U","ARG_OF_PERICENTER":"47.6935","ECCENTRICITY":"0.00017130","TLE_LINE1":"1 51856U 22022E   22319.77168921  .00007198  00000-0  46975-3 0  9990","MEAN_MOTION_DDOT":"0.0000000000000","MEAN_MOTION":"15.08848928","SEMIMAJOR_AXIS":"6917.853","LAUNCH_DATE":"2022-03-03","OBJECT_NAME":"STARLINK-3568","RCS_SIZE":"LARGE","OBJECT_ID":"2022-022E","PERIOD":"95.437","DECAY_DATE":null,"NORAD_CAT_ID":"51856","MEAN_ANOMALY":"312.4202","EPOCH":"2022-11-15T18:31:13.947744","BSTAR":"0.00046975000000","TLE_LINE2":"2 51856  53.2175  50.6600 0001713  47.6935 312.4202 15.08848928 40396","RA_OF_ASC_NODE":"50.6600","FILE":"3657961","SITE":"AFETR","REV_AT_EPOCH":"4039","PERIAPSIS":"538.533","APOAPSIS":"540.903","TIME_SYSTEM":"UTC","REF_FRAME":"TEME","GP_ID":"217906125","ELEMENT_SET_NO":"999","COUNTRY_CODE":"US","CENTER_NAME":"EARTH","OBJECT_TYPE":"PAYLOAD","MEAN_MOTION_DOT":"0.00007198"},{"NORAD_CAT_ID":"51857","EPOCH":"2022-11-15T13:29:10.555008","MEAN_ANOMALY":"309.9631","DECAY_DATE":null,"BSTAR":"0.00009753000000","RA_OF_ASC_NODE":"51.5949","TLE_LINE2":"2 51857  53.2190  51.5949 0001732  50.1513 309.9631 15.08834223 40336","FILE":"3657603","REV_AT_EPOCH":"4033","SITE":"AFETR","PERIAPSIS":"538.565","APOAPSIS":"540.961","REF_FRAME":"TEME","TIME_SYSTEM":"UTC","OBJECT_TYPE":"PAYLOAD","GP_ID":"217846287","COUNTRY_CODE":"US","ELEMENT_SET_NO":"999","CENTER_NAME":"EARTH","MEAN_MOTION_DOT":"0.00001264","MEAN_ELEMENT_THEORY":"SGP4","EPHEMERIS_TYPE":"0","CLASSIFICATION_TYPE":"U","INCLINATION":"53.2190","TLE_LINE1":"1 51857U 22022F   22319.56192772  .00001264  00000-0  97530-4 0  9991","ARG_OF_PERICENTER":"50.1513","ECCENTRICITY":"0.00017320","MEAN_MOTION_DDOT":"0.0000000000000","MEAN_MOTION":"15.08834223","SEMIMAJOR_AXIS":"6917.898","LAUNCH_DATE":"2022-03-03","OBJECT_NAME":"STARLINK-3571","RCS_SIZE":"LARGE","PERIOD":"95.438","OBJECT_ID":"2022-022F"},{"EPHEMERIS_TYPE":"0","CLASSIFICATION_TYPE":"U","INCLINATION":"53.2188","MEAN_ELEMENT_THEORY":"SGP4","TLE_LINE1":"1 51858U 22022G   22319.56561285  .00001091  00000-0  86664-4 0  9995","ECCENTRICITY":"0.00017630","ARG_OF_PERICENTER":"49.1528","SEMIMAJOR_AXIS":"6917.904","MEAN_MOTION":"15.08832163","MEAN_MOTION_DDOT":"0.0000000000000","PERIOD":"95.438","OBJECT_ID":"2022-022G","RCS_SIZE":"LARGE","OBJECT_NAME":"STARLINK-3563","LAUNCH_DATE":"2022-03-03","BSTAR":"0.00008666400000","MEAN_ANOMALY":"310.9617","EPOCH":"2022-11-15T13:34:28.950240","NORAD_CAT_ID":"51858","DECAY_DATE":null,"REV_AT_EPOCH":"4033","SITE":"AFETR","RA_OF_ASC_NODE":"51.5851","TLE_LINE2":"2 51858  53.2188  51.5851 0001763  49.1528 310.9617 15.08832163 40331","FILE":"3657618","REF_FRAME":"TEME","TIME_SYSTEM":"UTC","APOAPSIS":"540.989","PERIAPSIS":"538.550","MEAN_MOTION_DOT":"0.00001091","OBJECT_TYPE":"PAYLOAD","COUNTRY_CODE":"US","ELEMENT_SET_NO":"999","CENTER_NAME":"EARTH","GP_ID":"217875808"},{"FILE":"3657961","TLE_LINE2":"2 51859  53.2190  40.9048 0001959  41.1279 318.9860 15.08846371 40498","RA_OF_ASC_NODE":"40.9048","REV_AT_EPOCH":"4049","SITE":"AFETR","NORAD_CAT_ID":"51859","MEAN_ANOMALY":"318.9860","EPOCH":"2022-11-15T17:07:46.754976","DECAY_DATE":null,"BSTAR":"0.00034651000000","OBJECT_TYPE":"PAYLOAD","GP_ID":"217905376","ELEMENT_SET_NO":"999","COUNTRY_CODE":"US","CENTER_NAME":"EARTH","MEAN_MOTION_DOT":"0.00005232","PERIAPSIS":"538.371","APOAPSIS":"541.081","TIME_SYSTEM":"UTC","REF_FRAME":"TEME","TLE_LINE1":"1 51859U 22022H   22319.71373559  .00005232  00000-0  34651-3 0  9997","ARG_OF_PERICENTER":"41.1279","ECCENTRICITY":"0.00019590","MEAN_ELEMENT_THEORY":"SGP4","EPHEMERIS_TYPE":"0","CLASSIFICATION_TYPE":"U","INCLINATION":"53.2190","LAUNCH_DATE":"2022-03-03","RCS_SIZE":"LARGE","OBJECT_NAME":"STARLINK-3560","PERIOD":"95.437","OBJECT_ID":"2022-022H","MEAN_MOTION_DDOT":"0.0000000000000","MEAN_MOTION":"15.08846371","SEMIMAJOR_AXIS":"6917.861"}];
